[{"OBJECT_NAME":"STARLINK-31704","OBJECT_ID":"2024-076Y","EPOCH":"2026-03-09T22:00:01.999584","MEAN_MOTION":15.30892355,"ECCENTRICITY":0.00079744,"INCLINATION":42.9978,"RA_OF_ASC_NODE":323.2923,"ARG_OF_PERICENTER":240.5046,"MEAN_ANOMALY":200.4144,"EPHEMERIS_TYPE":0,"CLASSIFICATION_TYPE":"U","NORAD_CAT_ID":59586,"ELEMENT_SET_NO":999,"REV_AT_EPOCH":581,"BSTAR":0.0024766131,"MEAN_MOTION_DOT":0.00076042,"MEAN_MOTION_DDOT":0},{"OBJECT_NAME":"STARLINK-32823","OBJECT_ID":"2025-018T","EPOCH":"2026-03-09T21:33:44.148096","MEAN_MOTION":15.30202876,"ECCENTRICITY":0.00015132,"INCLINATION":53.1587,"RA_OF_ASC_NODE":308.391,"ARG_OF_PERICENTER":139.7649,"MEAN_ANOMALY":220.3464,"EPHEMERIS_TYPE":0,"CLASSIFICATION_TYPE":"U","NORAD_CAT_ID":62823,"ELEMENT_SET_NO":999,"REV_AT_EPOCH":6321,"BSTAR":0.00050086017,"MEAN_MOTION_DOT":0.00014505,"MEAN_MOTION_DDOT":0}]
